LYNK TOWER 6            
1 59123U 24043AB  26068.89488777  .00011440  00000+0  40142-3 0  9996
2 59123  97.5426 204.1954 0009749 232.0253 128.0107 15.29548678111845
STARLINK-32836          
1 62965U 25029T   26068.70805304  .00024434  00000+0  83428-3 0  9999
2 62965  53.1605 230.0081 0000915  96.0489 264.0617 15.30203614 61351
